{"type": "FeatureCollection", "features": [ {"type": "Feature", "properties": {"norad_id": 60989, "name": "SENTINEL-2C", "group": "resource", "lat": -57.477860737568825, "lon": 80.74359345053806, "alt_km": 796.8193608032971, "timestamp": "2025-12-20T16:47:35.949397+00:00", "meta": {"OBJECT_NAME": "SENTINEL-2C", "OBJECT_ID": "2024-157A", "EPOCH": "2025-12-20T03:38:23.300448", "MEAN_MOTION": 14.30820273, "ECCENTRICITY": 0.00012037, "INCLINATION": 98.5676, "RA_OF_ASC_NODE": 66.5273, "ARG_OF_PERICENTER": 95.83, "MEAN_ANOMALY": 264.302, "EPHEMERIS_TYPE": 0, "CLASSIFICATION_TYPE": "U", "NORAD_CAT_ID": 60989, "ELEMENT_SET_NO": 999, "REV_AT_EPOCH": 6738, "BSTAR": 5.6238603e-05, "MEAN_MOTION_DOT": 1.04e-06, "MEAN_MOTION_DDOT": 0}, "tle": {"line1": "1 60989U 24157A   25354.15165857  .00000104  00000+0  56239-4 0  9991", "line2": "2 60989  98.5676  66.5273 0001203  95.8300 264.3020 14.30820273 67386"}}, "geometry": {"type": "Point", "coordinates": [80.74359345053806, -57.477860737568825]}}, {"type": "Feature", "properties": {"norad_id": 61735, "name": "IONOSFERA-M 1", "group": "resource", "lat": -23.6918635259743, "lon": -131.64293897444784, "alt_km": 821.2698502039357, "timestamp": "2025-12-20T16:47:35.949408+00:00", "meta": {"OBJECT_NAME": "IONOSFERA-M 1", "OBJECT_ID": "2024-199A", "EPOCH": "2025-12-20T13:31:48.242784", "MEAN_MOTION": 14.22715619, "ECCENTRICITY": 5.88e-05, "INCLINATION": 98.7399, "RA_OF_ASC_NODE": 224.3517, "ARG_OF_PERICENTER": 12.1224, "MEAN_ANOMALY": 347.9968, "EPHEMERIS_TYPE": 0, "CLASSIFICATION_TYPE": "U", "NORAD_CAT_ID": 61735, "ELEMENT_SET_NO": 999, "REV_AT_EPOCH": 10230, "BSTAR": 3.8514e-05, "MEAN_MOTION_DOT": 4.2e-07, "MEAN_MOTION_DDOT": 0}, "tle": {"line1": "1 61735U 24199A   25354.56375281  .00000042  00000+0  38514-4 0  9993", "line2": "2 61735  98.7399 224.3517 0000588  12.1224 347.9968 14.22715619102306"}}, "geometry": {"type": "Point", "coordinates": [-131.64293897444784, -23.6918635259743]}}, {"type": "Feature", "properties": {"norad_id": 61736, "name": "IONOSFERA-M 2", "group": "resource", "lat": 20.766593871783428, "lon": 47.74300154639723, "alt_km": 815.3824315384527, "timestamp": "2025-12-20T16:47:35.949418+00:00", "meta": {"OBJECT_NAME": "IONOSFERA-M 2", "OBJECT_ID": "2024-199B", "EPOCH": "2025-12-20T12:40:24.413376", "MEAN_MOTION": 14.2271779, "ECCENTRICITY": 0.0001809, "INCLINATION": 98.7397, "RA_OF_ASC_NODE": 224.2287, "ARG_OF_PERICENTER": 100.5507, "MEAN_ANOMALY": 259.5874, "EPHEMERIS_TYPE": 0, "CLASSIFICATION_TYPE": "U", "NORAD_CAT_ID": 61736, "ELEMENT_SET_NO": 999, "REV_AT_EPOCH": 10542, "BSTAR": 3.9221e-05, "MEAN_MOTION_DOT": 4.4e-07, "MEAN_MOTION_DDOT": 0}, "tle": {"line1": "1 61736U 24199B   25354.52806034  .00000044  00000+0  39221-4 0  9993", "line2": "2 61736  98.7397 224.2287 0001809 100.5507 259.5874 14.22717790105423"}}, "geometry": {"type": "Point", "coordinates": [47.74300154639723, 20.766593871783428]}}, {"type": "Feature", "properties": {"norad_id": 63772, "name": "BIOMASS", "group": "resource", "lat": -13.265302254694411, "lon": -2.3233052873133015, "alt_km": 673.790913508682, "timestamp": "2025-12-20T16:47:35.949428+00:00", "meta": {"OBJECT_NAME": "BIOMASS", "OBJECT_ID": "2025-090A", "EPOCH": "2025-12-20T11:00:22.690080", "MEAN_MOTION": 14.67537273, "ECCENTRICITY": 0.0001104, "INCLINATION": 98.07, "RA_OF_ASC_NODE": 179.356, "ARG_OF_PERICENTER": 81.418, "MEAN_ANOMALY": 278.715, "EPHEMERIS_TYPE": 0, "CLASSIFICATION_TYPE": "U", "NORAD_CAT_ID": 63772, "ELEMENT_SET_NO": 999, "REV_AT_EPOCH": 3447, "BSTAR": 0.00016711, "MEAN_MOTION_DOT": 9e-06, "MEAN_MOTION_DDOT": 0}, "tle": {"line1": "1 63772U 25090A   25354.45859595  .00000900  00000+0  16711-3 0  9997", "line2": "2 63772  98.0700 179.3560 0001104  81.4180 278.7150 14.67537273 34473"}}, "geometry": {"type": "Point", "coordinates": [-2.3233052873133015, -13.265302254694411]}}, {"type": "Feature", "properties": {"norad_id": 64694, "name": "GOSAT-GW (IBUKI GW)", "group": "resource", "lat": 42.883103735267916, "lon": -77.47787654547045, "alt_km": 664.5243610977568, "timestamp": "2025-12-20T16:47:35.949438+00:00", "meta": {"OBJECT_NAME": "GOSAT-GW (IBUKI GW)", "OBJECT_ID": "2025-141A", "EPOCH": "2025-12-20T13:19:24.604896", "MEAN_MOTION": 14.67565678, "ECCENTRICITY": 0.0001462, "INCLINATION": 98.0435, "RA_OF_ASC_NODE": 289.9265, "ARG_OF_PERICENTER": 83.9191, "MEAN_ANOMALY": 276.218, "EPHEMERIS_TYPE": 0, "CLASSIFICATION_TYPE": "U", "NORAD_CAT_ID": 64694, "ELEMENT_SET_NO": 999, "REV_AT_EPOCH": 2564, "BSTAR": 0.00010035, "MEAN_MOTION_DOT": 5.22e-06, "MEAN_MOTION_DDOT": 0}, "tle": {"line1": "1 64694U 25141A   25354.55514589  .00000522  00000+0  10035-3 0  9993", "line2": "2 64694  98.0435 289.9265 0001462  83.9191 276.2180 14.67565678 25643"}}, "geometry": {"type": "Point", "coordinates": [-77.47787654547045, 42.883103735267916]}}, {"type": "Feature", "properties": {"norad_id": 64876, "name": "IONOSFERA-M 3", "group": "resource", "lat": 13.204496228264821, "lon": 138.37067512722763, "alt_km": 822.2443757041638, "timestamp": "2025-12-20T16:47:35.949448+00:00", "meta": {"OBJECT_NAME": "IONOSFERA-M 3", "OBJECT_ID": "2025-155A", "EPOCH": "2025-12-20T12:38:01.667616", "MEAN_MOTION": 14.2144277, "ECCENTRICITY": 0.0002018, "INCLINATION": 98.5793, "RA_OF_ASC_NODE": 316.1724, "ARG_OF_PERICENTER": 47.5658, "MEAN_ANOMALY": 312.5691, "EPHEMERIS_TYPE": 0, "CLASSIFICATION_TYPE": "U", "NORAD_CAT_ID": 64876, "ELEMENT_SET_NO": 999, "REV_AT_EPOCH": 2102, "BSTAR": 3.5862e-05, "MEAN_MOTION_DOT": 3.6e-07, "MEAN_MOTION_DDOT": 0}, "tle": {"line1": "1 64876U 25155A   25354.52640819  .00000036  00000+0  35862-4 0  9999", "line2": "2 64876  98.5793 316.1724 0002018  47.5658 312.5691 14.21442770 21028"}}, "geometry": {"type": "Point", "coordinates": [138.37067512722763, 13.204496228264821]}}, {"type": "Feature", "properties": {"norad_id": 64877, "name": "IONOSFERA-M 4", "group": "resource", "lat": -12.784885655609417, "lon": -41.77667876000046, "alt_km": 824.5184097280699, "timestamp": "2025-12-20T16:47:35.949458+00:00", "meta": {"OBJECT_NAME": "IONOSFERA-M 4", "OBJECT_ID": "2025-155B", "EPOCH": "2025-12-20T11:47:09.089952", "MEAN_MOTION": 14.21443914, "ECCENTRICITY": 0.0001419, "INCLINATION": 98.5792, "RA_OF_ASC_NODE": 316.0575, "ARG_OF_PERICENTER": 55.8426, "MEAN_ANOMALY": 304.2886, "EPHEMERIS_TYPE": 0, "CLASSIFICATION_TYPE": "U", "NORAD_CAT_ID": 64877, "ELEMENT_SET_NO": 999, "REV_AT_EPOCH": 2101, "BSTAR": 3.6705e-05, "MEAN_MOTION_DOT": 3.8e-07, "MEAN_MOTION_DDOT": 0}, "tle": {"line1": "1 64877U 25155B   25354.49107743  .00000038  00000+0  36705-4 0  9999", "line2": "2 64877  98.5792 316.0575 0001419  55.8426 304.2886 14.21443914 21014"}}, "geometry": {"type": "Point", "coordinates": [-41.77667876000046, -12.784885655609417]}}, {"type": "Feature", "properties": {"norad_id": 64899, "name": "MICROCARB", "group": "resource", "lat": 29.490281618559557, "lon": -105.51976043207127, "alt_km": 642.3111025145581, "timestamp": "2025-12-20T16:47:35.949468+00:00", "meta": {"OBJECT_NAME": "MICROCARB", "OBJECT_ID": "2025-156A", "EPOCH": "2025-12-20T04:41:43.963008", "MEAN_MOTION": 14.72068313, "ECCENTRICITY": 0.0017493, "INCLINATION": 98.0018, "RA_OF_ASC_NODE": 69.4214, "ARG_OF_PERICENTER": 122.322, "MEAN_ANOMALY": 237.9684, "EPHEMERIS_TYPE": 0, "CLASSIFICATION_TYPE": "U", "NORAD_CAT_ID": 64899, "ELEMENT_SET_NO": 999, "REV_AT_EPOCH": 2163, "BSTAR": 8.854e-05, "MEAN_MOTION_DOT": 5.08e-06, "MEAN_MOTION_DDOT": 0}, "tle": {"line1": "1 64899U 25156A   25354.19564772  .00000508  00000+0  88540-4 0  9996", "line2": "2 64899  98.0018  69.4214 0017493 122.3220 237.9684 14.72068313 21632"}}, "geometry": {"type": "Point", "coordinates": [-105.51976043207127, 29.490281618559557]}}, {"type": "Feature", "properties": {"norad_id": 64900, "name": "CO3D 3", "group": "resource", "lat": 50.769145514304924, "lon": -99.84374899241105, "alt_km": 499.99423459483114, "timestamp": "2025-12-20T16:47:35.949478+00:00", "meta": {"OBJECT_NAME": "CO3D 3", "OBJECT_ID": "2025-156B", "EPOCH": "2025-12-20T11:29:26.170368", "MEAN_MOTION": 15.20203381, "ECCENTRICITY": 0.0001357, "INCLINATION": 97.4346, "RA_OF_ASC_NODE": 70.7354, "ARG_OF_PERICENTER": 79.5846, "MEAN_ANOMALY": 280.5542, "EPHEMERIS_TYPE": 0, "CLASSIFICATION_TYPE": "U", "NORAD_CAT_ID": 64900, "ELEMENT_SET_NO": 999, "REV_AT_EPOCH": 2238, "BSTAR": 0.00024352, "MEAN_MOTION_DOT": 5.208e-05, "MEAN_MOTION_DDOT": 0}, "tle": {"line1": "1 64900U 25156B   25354.47877512  .00005208  00000+0  24352-3 0  9991", "line2": "2 64900  97.4346  70.7354 0001357  79.5846 280.5542 15.20203381 22381"}}, "geometry": {"type": "Point", "coordinates": [-99.84374899241105, 50.769145514304924]}}, {"type": "Feature", "properties": {"norad_id": 64901, "name": "CO3D 4", "group": "resource", "lat": 51.42614002230831, "lon": -99.62448977437927, "alt_km": 499.76887062276273, "timestamp": "2025-12-20T16:47:35.949488+00:00", "meta": {"OBJECT_NAME": "CO3D 4", "OBJECT_ID": "2025-156C", "EPOCH": "2025-12-19T14:57:26.055072", "MEAN_MOTION": 15.20230123, "ECCENTRICITY": 0.0001264, "INCLINATION": 97.434, "RA_OF_ASC_NODE": 69.8917, "ARG_OF_PERICENTER": 174.7354, "MEAN_ANOMALY": 185.3894, "EPHEMERIS_TYPE": 0, "CLASSIFICATION_TYPE": "U", "NORAD_CAT_ID": 64901, "ELEMENT_SET_NO": 999, "REV_AT_EPOCH": 2225, "BSTAR": 0.00021367, "MEAN_MOTION_DOT": 4.564e-05, "MEAN_MOTION_DDOT": 0}, "tle": {"line1": "1 64901U 25156C   25353.62321823  .00004564  00000+0  21367-3 0  9994", "line2": "2 64901  97.4340  69.8917 0001264 174.7354 185.3894 15.20230123 22251"}}, "geometry": {"type": "Point", "coordinates": [-99.62448977437927, 51.42614002230831]}}]}